ENTRYSAT                
1 44429U 98067QP  20042.12399945  .00008487  00000-0  12928-3 0  9995
2 44429  51.6385 251.8233 0002830 198.9858 161.1028 15.55391146 34688
VCC C                   
1 44430U 98067QQ  20041.84578210  .00011106  00000-0  16389-3 0  9996
2 44430  51.6388 252.9714 0002912 209.4408 150.6420 15.55902002 33473
VCC B                   
1 44431U 98067QR  20041.83783512  .00007369  00000-0  11527-3 0  9994
2 44431  51.6389 253.6660 0003061 208.0068 152.0759 15.54886945 34575
DUCHIFAT-3              
1 44854U 19089C   20041.60284830  .00000331  00000-0  33238-4 0  9990
2 44854  36.9670 133.8663 0007040 100.4247 259.7281 14.98967065  9106
